[{"OBJECT_NAME":"FLOCK 4G-7","OBJECT_ID":"2025-009R","EPOCH":"2026-03-09T19:11:56.638176","MEAN_MOTION":15.27141471,"ECCENTRICITY":0.00013963,"INCLINATION":97.3984,"RA_OF_ASC_NODE":150.827,"ARG_OF_PERICENTER":336.9783,"MEAN_ANOMALY":23.1393,"EPHEMERIS_TYPE":0,"CLASSIFICATION_TYPE":"U","NORAD_CAT_ID":62624,"ELEMENT_SET_NO":999,"REV_AT_EPOCH":6372,"BSTAR":0.0004316781,"MEAN_MOTION_DOT":0.00011422,"MEAN_MOTION_DDOT":0},{"OBJECT_NAME":"STARLINK-35515","OBJECT_ID":"2025-263D","EPOCH":"2026-03-09T02:50:29.107680","MEAN_MOTION":15.27601008,"ECCENTRICITY":0.00017584,"INCLINATION":43.0044,"RA_OF_ASC_NODE":353.7399,"ARG_OF_PERICENTER":261.7226,"MEAN_ANOMALY":98.3426,"EPHEMERIS_TYPE":0,"CLASSIFICATION_TYPE":"U","NORAD_CAT_ID":66488,"ELEMENT_SET_NO":999,"REV_AT_EPOCH":1881,"BSTAR":0.0015562028,"MEAN_MOTION_DOT":0.00042838,"MEAN_MOTION_DDOT":0}]
